NORAD_CAT_ID,OBJECT_NAME,OBJECT_TYPE,EPOCH,MEAN_MOTION,ECCENTRICITY,INCLINATION,RA_OF_ASC_NODE,ARG_OF_PERICENTER,MEAN_ANOMALY,BSTAR,MEAN_MOTION_DOT,MEAN_MOTION_DDOT,TLE_LINE0,TLE_LINE1,TLE_LINE2,SEMIMAJOR_AXIS,PERIOD,APOGEE,PERIGEE,DECAYED
54195.0,STARLINK-5258,PAYLOAD,2023-09-21 19:08:48,15.08849711,0.0001518,53.2163,73.9718,88.7076,271.409,0.00077541,0.00012077,0.0,0 STARLINK-5258,1 54195U 22141AQ  23264.79778476  .00012077  00000-0  77541-3 0  9990,2 54195  53.2163  73.9718 0001518  88.7076 271.4090 15.08849711 50149,6917.851,95.437,540.766,538.666,0.0
54195.0,STARLINK-5258,PAYLOAD,2023-09-22 04:41:07,15.08848724,0.0001507,53.2166,72.1881,87.3384,272.778,0.00046154,7.067e-05,0.0,0 STARLINK-5258,1 54195U 22141AQ  23265.19522374  .00007067  00000-0  46154-3 0  9998,2 54195  53.2166  72.1881 0001507  87.3384 272.7780 15.08848724 50434,6917.854,95.437,540.761,538.676,0.0
54195.0,STARLINK-5258,PAYLOAD,2023-09-22 17:24:12,15.08846195,0.0001343,53.2161,69.8088,83.2036,276.9109,0.00044019,6.726e-05,0.0,0 STARLINK-5258,1 54195U 22141AQ  23265.72514442  .00006726  00000-0  44019-3 0  9993,2 54195  53.2161  69.8088 0001343  83.2036 276.9109 15.08846195 50518,6917.861,95.437,540.656,538.797,0.0
54195.0,STARLINK-5258,PAYLOAD,2023-09-22 20:34:58,15.0885302,0.0001473,53.2163,69.2135,92.3992,267.7169,0.00041905,6.39e-05,0.0,0 STARLINK-5258,1 54195U 22141AQ  23265.85762077  .00006390  00000-0  41905-3 0  9994,2 54195  53.2163  69.2135 0001473  92.3992 267.7169 15.08853020 50309,6917.841,95.437,540.725,538.687,0.0
54195.0,STARLINK-5258,PAYLOAD,2023-09-23 10:53:26,15.08844219,0.0001618,53.2159,66.5378,85.7563,274.3614,0.00014733,2.058e-05,0.0,0 STARLINK-5258,1 54195U 22141AQ  23266.45378393  .00002058  00000-0  14733-3 0  9991,2 54195  53.2159  66.5378 0001618  85.7563 274.3614 15.08844219 50628,6917.867,95.437,540.852,538.613,0.0
54195.0,STARLINK-5258,PAYLOAD,2023-09-24 13:55:00,15.08846145,0.0001414,53.2164,61.4817,84.0406,276.0747,0.00021415,3.122e-05,0.0,0 STARLINK-5258,1 54195U 22141AQ  23267.57986257  .00003122  00000-0  21415-3 0  9997,2 54195  53.2164  61.4817 0001414  84.0406 276.0747 15.08846145 50567,6917.862,95.437,540.705,538.748,0.0
54195.0,STARLINK-5258,PAYLOAD,2023-09-24 17:05:46,15.08849337,0.0001375,53.2168,60.8865,82.7911,277.3238,0.00024297,3.582e-05,0.0,0 STARLINK-5258,1 54195U 22141AQ  23267.71234109  .00003582  00000-0  24297-3 0  9996,2 54195  53.2168  60.8865 0001375  82.7911 277.3238 15.08849337 50812,6917.852,95.437,540.668,538.766,0.0
54195.0,STARLINK-5258,PAYLOAD,2023-09-25 13:45:47,15.08845069,0.0001388,53.217,57.0206,92.3396,267.7755,0.0001715,2.443e-05,0.0,0 STARLINK-5258,1 54195U 22141AQ  23268.57346270  .00002443  00000-0  17150-3 0  9999,2 54195  53.2170  57.0206 0001388  92.3396 267.7755 15.08845069 50714,6917.865,95.437,540.69,538.77,0.0
54195.0,STARLINK-5258,PAYLOAD,2023-09-25 16:56:33,15.08852315,0.0001318,53.2167,56.4269,85.3058,274.8085,0.00031829,4.783e-05,0.0,0 STARLINK-5258,1 54195U 22141AQ  23268.70594027  .00004783  00000-0  31829-3 0  9997,2 54195  53.2167  56.4269 0001318  85.3058 274.8085 15.08852315 50966,6917.843,95.437,540.62,538.796,0.0
54195.0,STARLINK-5258,PAYLOAD,2023-09-26 13:36:34,15.08834837,0.0001466,53.217,52.5624,92.8457,267.2703,9.8778e-06,-1.31e-06,0.0,0 STARLINK-5258,1 54195U 22141AQ  23269.56706837 -.00000131  00000-0  98778-5 0  9998,2 54195  53.2170  52.5624 0001466  92.8457 267.2703 15.08834837 50863,6917.896,95.438,540.775,538.747,0.0
54195.0,STARLINK-5258,PAYLOAD,2023-09-26 16:47:21,15.08835552,0.000143,53.2173,51.9655,88.6065,271.5091,3.5864e-05,2.83e-06,0.0,0 STARLINK-5258,1 54195U 22141AQ  23269.69954886  .00000283  00000-0  35864-4 0  9994,2 54195  53.2173  51.9655 0001430  88.6065 271.5091 15.08835552 51114,6917.894,95.438,540.748,538.77,0.0
54195.0,STARLINK-5258,PAYLOAD,2023-09-27 13:27:21,15.08841662,0.0001406,53.2181,48.1011,88.1147,272.0006,0.00018418,2.645e-05,0.0,0 STARLINK-5258,1 54195U 22141AQ  23270.56067032  .00002645  00000-0  18418-3 0  9999,2 54195  53.2181  48.1011 0001406  88.1147 272.0006 15.08841662 51016,6917.875,95.437,540.713,538.768,0.0
54195.0,STARLINK-5258,PAYLOAD,2023-09-27 16:38:08,15.08846319,0.0001432,53.2179,47.5071,89.4829,270.6328,0.00035209,5.321e-05,0.0,0 STARLINK-5258,1 54195U 22141AQ  23270.69314931  .00005321  00000-0  35209-3 0  9997,2 54195  53.2179  47.5071 0001432  89.4829 270.6328 15.08846319 51264,6917.861,95.437,540.717,538.735,0.0
54195.0,STARLINK-5258,PAYLOAD,2023-09-28 14:53:32,15.0884055,0.000153,53.2183,43.3424,89.9377,270.1791,0.0001339,1.844e-05,0.0,0 STARLINK-5258,1 54195U 22141AQ  23271.62051199  .00001844  00000-0  13390-3 0  9998,2 54195  53.2183  43.3424 0001530  89.9377 270.1791 15.08840550 51177,6917.879,95.438,540.802,538.685,0.0
54195.0,STARLINK-5258,PAYLOAD,2023-09-28 16:28:55,15.08841614,0.0001543,53.2182,43.0446,71.4236,288.6924,0.00015842,2.234e-05,0.0,0 STARLINK-5258,1 54195U 22141AQ  23271.68675239  .00002234  00000-0  15842-3 0  9999,2 54195  53.2182  43.0446 0001543  71.4236 288.6924 15.08841614 51412,6917.875,95.437,540.808,538.673,0.0
54195.0,STARLINK-5258,PAYLOAD,2023-09-29 13:08:56,15.08844695,0.0001418,53.218,39.181,80.8818,279.2335,0.00015321,2.152e-05,0.0,0 STARLINK-5258,1 54195U 22141AQ  23272.54787197  .00002152  00000-0  15321-3 0  9993,2 54195  53.2180  39.1810 0001418  80.8818 279.2335 15.08844695 51315,6917.866,95.437,540.712,538.75,0.0
54195.0,STARLINK-5258,PAYLOAD,2023-09-30 01:52:00,15.08848804,0.0001489,53.2179,36.8023,72.7677,287.3478,0.00014734,2.058e-05,0.0,0 STARLINK-5258,1 54195U 22141AQ  23273.07778842  .00002058  00000-0  14734-3 0  9991,2 54195  53.2179  36.8023 0001489  72.7677 287.3478 15.08848804 51622,6917.853,95.437,540.749,538.688,0.0
54195.0,STARLINK-5258,PAYLOAD,2023-09-30 08:13:33,15.08842742,0.0001516,53.2181,35.6145,77.0268,283.0894,7.4783e-05,9.02e-06,0.0,0 STARLINK-5258,1 54195U 22141AQ  23273.34275222  .00000902  00000-0  74783-4 0  9992,2 54195  53.2181  35.6145 0001516  77.0268 283.0894 15.08842742 51666,6917.872,95.437,540.786,538.688,0.0
54195.0,STARLINK-5258,PAYLOAD,2023-10-01 11:15:06,15.08849548,0.0001631,53.2182,30.5566,97.6488,262.469,0.00015945,2.251e-05,0.0,0 STARLINK-5258,1 54195U 22141AQ  23274.46882585  .00002251  00000-0  15945-3 0  9995,2 54195  53.2182  30.5566 0001631  97.6488 262.4690 15.08849548 51833,6917.851,95.437,540.845,538.588,0.0
54195.0,STARLINK-5258,PAYLOAD,2023-10-01 14:25:52,15.08854022,0.0001703,53.2192,29.9615,103.6417,256.4765,0.00022096,3.232e-05,0.0,0 STARLINK-5258,1 54195U 22141AQ  23274.60130247  .00003232  00000-0  22096-3 0  9997,2 54195  53.2192  29.9615 0001703 103.6417 256.4765 15.08854022 51627,6917.838,95.437,540.881,538.524,0.0
54195.0,STARLINK-5258,PAYLOAD,2023-10-01 17:36:38,15.08855484,0.0001707,53.2192,29.3655,101.7482,258.3702,0.00033089,4.984e-05,0.0,0 STARLINK-5258,1 54195U 22141AQ  23274.73378108  .00004984  00000-0  33089-3 0  9990,2 54195  53.2192  29.3655 0001707 101.7482 258.3702 15.08855484 51647,6917.833,95.437,540.879,538.517,0.0
54195.0,STARLINK-5258,PAYLOAD,2023-10-02 11:05:54,15.08831234,0.0001791,53.2186,26.0956,94.2186,265.9011,-8.6583e-05,-1.665e-05,0.0,0 STARLINK-5258,1 54195U 22141AQ  23275.46243548 -.00001665  00000-0 -86583-4 0  9993,2 54195  53.2186  26.0956 0001791  94.2186 265.9011 15.08831234 51989,6917.907,95.438,541.011,538.533,0.0
54195.0,STARLINK-5258,PAYLOAD,2023-10-02 17:27:26,15.08837114,0.0001721,53.2188,24.9056,91.7887,268.3302,-2.3783e-05,-6.67e-06,0.0,0 STARLINK-5258,1 54195U 22141AQ  23275.72739345 -.00000667  00000-0 -23783-4 0  9991,2 54195  53.2188  24.9056 0001721  91.7887 268.3302 15.08837114 51794,6917.889,95.438,540.945,538.564,0.0
54195.0,STARLINK-5258,PAYLOAD,2023-10-03 12:32:04,15.08841829,0.0001721,53.2182,21.3396,91.2917,268.8272,0.00013914,1.927e-05,0.0,0 STARLINK-5258,1 54195U 22141AQ  23276.52227324  .00001927  00000-0  13914-3 0  9991,2 54195  53.2182  21.3396 0001721  91.2917 268.8272 15.08841829 52144,6917.875,95.437,540.93,538.549,0.0
54195.0,STARLINK-5258,PAYLOAD,2023-10-03 14:07:27,15.08850647,0.0001604,53.2184,21.0445,83.5149,276.6026,0.00015074,2.112e-05,0.0,0 STARLINK-5258,1 54195U 22141AQ  23276.58850900  .00002112  00000-0  15074-3 0  9995,2 54195  53.2184  21.0445 0001604  83.5149 276.6026 15.08850647 51926,6917.848,95.437,540.822,538.603,0.0
54195.0,STARLINK-5258,PAYLOAD,2023-10-04 10:47:28,15.08844271,0.0001719,53.2187,17.1788,75.9433,284.175,0.00020492,2.975e-05,0.0,0 STARLINK-5258,1 54195U 22141AQ  23277.44963447  .00002975  00000-0  20492-3 0  9999,2 54195  53.2187  17.1788 0001719  75.9433 284.1750 15.08844271 52287,6917.867,95.437,540.922,538.543,0.0
54195.0,STARLINK-5258,PAYLOAD,2023-10-04 13:58:14,15.08850551,0.0001545,53.2178,16.5843,76.0519,284.0645,0.00033207,5.002e-05,0.0,0 STARLINK-5258,1 54195U 22141AQ  23277.58211104  .00005002  00000-0  33207-3 0  9992,2 54195  53.2178  16.5843 0001545  76.0519 284.0645 15.08850551 52073,6917.848,95.437,540.782,538.644,0.0
54195.0,STARLINK-5258,PAYLOAD,2023-10-05 10:38:15,15.08840665,0.000191,53.2194,12.7175,97.0382,263.0827,-1.7282e-05,-5.63e-06,0.0,0 STARLINK-5258,1 54195U 22141AQ  23278.44323447 -.00000563  00000-0 -17282-4 0  9997,2 54195  53.2194  12.7175 0001910  97.0382 263.0827 15.08840665 52438,6917.878,95.438,541.065,538.422,0.0
54195.0,STARLINK-5258,PAYLOAD,2023-10-05 13:49:01,15.08849558,0.000147,53.2171,12.1203,86.111,274.005,0.00013907,1.927e-05,0.0,0 STARLINK-5258,1 54195U 22141AQ  23278.57570928  .00001927  00000-0  13907-3 0  9991,2 54195  53.2171  12.1203 0001470  86.1110 274.0050 15.08849558 52225,6917.851,95.437,540.733,538.699,0.0
54195.0,STARLINK-5258,PAYLOAD,2023-10-06 10:29:02,15.08832751,0.0001508,53.2171,8.255,93.5877,266.5288,1.1607e-05,-1.03e-06,0.0,0 STARLINK-5258,1 54195U 22141AQ  23279.43683948 -.00000103  00000-0  11607-4 0  9996,2 54195  53.2171   8.2550 0001508  93.5877 266.5288 15.08832751 52585,6917.903,95.438,540.811,538.724,0.0
